STARLINK-3289           
1 50173U 21125T   26068.71560392  .00027564  00000+0  16796-2 0  9996
2 50173  53.2150 238.9259 0001006 143.9291 216.1770 15.10198828236758
LEMUR-2-ESPERANZA       
1 63352U 25061B   26068.87489603  .00006090  00000+0  34973-3 0  9993
2 63352  97.5568  45.1407 0016949 244.8770 115.0702 15.12770807 52576
